STARLINK-37922          
1 69971U 26157AE  26198.66670139 -.02109997  00000+0 -82082-2 0  9997
2 69971  53.1582 283.0587 0000883  66.2267 252.0921 15.89394504  2550
CHUANG XIN 26 (CX-26)   
1 69972U 26158A   26194.51442212 -.00000212  00000+0 -21871-4 0  9997
2 69972  49.9860 287.5119 0004887 294.2352  65.8050 14.25122238   462
CZ-10B DEB              
1 69973U 26158B   26194.58513205  .00000099  00000+0  11013-3 0  9993
2 69973  49.9846 287.2193 0005701 305.8104  54.2279 14.24885997   479
CZ-10B R/B              
1 69974U 26158C   26194.56253036  .00000143  00000+0  55130-4 0  9994
2 69974  49.9631 286.3519 0197944 194.8878 164.6170 14.64293949   480
STARLINK-38024          
1 69975U 26159A   26198.66670139 -.01782874  00000+0 -71733-2 0  9994
2 69975  97.2858  37.4619 0001239  78.2851 241.7536 15.89295771  2254
STARLINK-37993          
1 69976U 26159B   26198.66670139 -.02017578  10807-2 -70171-2 0  9992
2 69976  97.2857  37.4624 0001245  77.8250 244.2199 15.89521034  2252
STARLINK-37995          
1 69977U 26159C   26198.66670139 -.01989201  10545-2 -68459-2 0  9998
2 69977  97.2858  37.4635 0001235  79.0120 245.1006 15.89728386  2251
STARLINK-38057          
1 69978U 26159D   26198.66670139 -.01971975  10396-2 -67170-2 0  9991
2 69978  97.2858  37.4640 0001167  80.1021 246.1724 15.89932375  2258
STARLINK-38063          
1 69979U 26159E   26198.66670139 -.01963080  10329-2 -66187-2 0  9993
2 69979  97.2858  37.4654 0001214  77.7588 250.7003 15.90134874  2258
STARLINK-38093          
1 69980U 26159F   26198.66670139 -.01954309  10263-2 -65235-2 0  9999
2 69980  97.2858  37.4660 0001187  77.0232 253.6344 15.90332744  2251
STARLINK-38050          
1 69981U 26159G   26198.66670139 -.01931332  10057-2 -63855-2 0  9998
2 69981  97.2858  37.4670 0001227  73.3645 259.3620 15.90519443  2258
STARLINK-38065          
1 69982U 26159H   26198.66670139 -.01924818  10013-2 -63017-2 0  9992
2 69982  97.2858  37.4679 0001239  72.0753 262.7645 15.90713134  2255
STARLINK-38077          
1 69983U 26159J   26198.66670139 -.01903359  98228-3 -61745-2 0  9991
2 69983  97.2859  37.4687 0001186  70.6306 266.2886 15.90892115  2258
STARLINK-38068          
1 69984U 26159K   26198.66670139 -.01885360  96675-3 -60589-2 0  9992
2 69984  97.2859  37.4695 0001155  78.5712 260.2336 15.91075182  2254
STARLINK-38089          
1 69985U 26159L   26198.66670139 -.01874372  95796-3 -59689-2 0  9996
2 69985  97.2859  37.4705 0001195  71.8620 269.0481 15.91252934  2255
STARLINK-38073          
1 69986U 26159M   26198.66670139 -.01860891  94680-3 -58728-2 0  9992
2 69986  97.2858  37.4712 0001194  71.3637 271.5141 15.91428348  2250
STARLINK-38099          
1 69987U 26159N   26198.66670139 -.01841130  92970-3 -57597-2 0  9991
2 69987  97.2858  37.4719 0001180  70.7617 273.9999 15.91597819  2251
STARLINK-38064          
1 69988U 26159P   26198.66670139 -.01826454  91912-3 -56132-2 0  9993
2 69988  97.2858  37.4733 0001165  67.6654 280.9852 15.91942736  2255
STARLINK-38080          
1 69989U 26159Q   26198.66670139 -.01836456  92694-3 -56936-2 0  9997
2 69989  97.2856  37.4728 0001197  69.8444 276.8945 15.91772905  2250
STARLINK-38070          
1 69990U 26159R   26198.66670139 -.01810394  90556-3 -55179-2 0  9995
2 69990  97.2857  37.4741 0001165  69.8126 280.8165 15.92102478  2252
STARLINK-38042          
1 69991U 26159S   26198.66670139 -.01791139  88911-3 -54141-2 0  9991
2 69991  97.2856  37.4749 0001158  71.2853 281.0644 15.92261291  2250
STARLINK-38071          
1 69992U 26159T   26198.66670139 -.01780137  88040-3 -53359-2 0  9991
2 69992  97.2857  37.4757 0001180  68.6923 285.4202 15.92422650  2250
STARLINK-38082          
1 69993U 26159U   26198.66670139 -.01760686  86388-3 -52360-2 0  9993
2 69993  97.2859  37.4763 0001134  71.6921 284.2016 15.92573282  2259
STARLINK-38090          
1 69994U 26159V   26198.66670139 -.01756496  86147-3 -51803-2 0  9992
2 69994  97.2858  37.4771 0001160  70.6200 287.0753 15.92733661  2254
STARLINK-38084          
1 69995U 26159W   26198.66670139 -.01745230  85252-3 -51067-2 0  9995
2 69995  97.2857  37.4780 0001159  68.8802 290.7320 15.92884269  2251
STARLINK-38085          
1 69996U 26159X   26198.66670139 -.01729022  83909-3 -50205-2 0  9997
2 69996  97.2857  37.4788 0001140  69.3140 291.9659 15.93030466  2252
STARLINK-38091          
1 69997U 26159Y   26198.66670139 -.01720880  83303-3 -49577-2 0  9999
2 69997  97.2858  37.4794 0001197  62.5422 300.5961 15.93180558  2252
STARLINK-38086          
1 69998U 26159Z   26198.66670139 -.01710669  82508-3 -48909-2 0  9998
2 69998  97.2858  37.4803 0001146  66.4423 298.4433 15.93325675  2252
