OBJECT_NAME,OBJECT_ID,EPOCH,MEAN_MOTION,ECCENTRICITY,INCLINATION,RA_OF_ASC_NODE,ARG_OF_PERICENTER,MEAN_ANOMALY,EPHEMERIS_TYPE,CLASSIFICATION_TYPE,NORAD_CAT_ID,ELEMENT_SET_NO,REV_AT_EPOCH,BSTAR,MEAN_MOTION_DOT,MEAN_MOTION_DDOT
STARLINK-37922,2026-157AE,2026-07-17T16:00:03.000096,15.89394504,.0000883,53.1582,283.0587,66.2267,252.0921,0,U,69971,999,255,-.82082E-2,-.2109997E-1,0
CHUANG XIN 26 (CX-26),2026-158A,2026-07-13T12:20:46.071168,14.25122238,.0004887,49.9860,287.5119,294.2352,65.8050,0,U,69972,999,46,-.21871415E-4,-.212E-5,0
CZ-10B DEB,2026-158B,2026-07-13T14:02:35.409120,14.24885997,.0005701,49.9846,287.2193,305.8104,54.2279,0,U,69973,999,47,.11013E-3,.99E-6,0
CZ-10B R/B,2026-158C,2026-07-13T13:30:02.623104,14.64293949,.01979448,49.9631,286.3519,194.8878,164.6170,0,U,69974,999,48,.55130296E-4,.143E-5,0
STARLINK-38024,2026-159A,2026-07-17T16:00:03.000096,15.89295771,.0001239,97.2858,37.4619,78.2851,241.7536,0,U,69975,999,225,-.71733E-2,-.1782874E-1,0
STARLINK-37993,2026-159B,2026-07-17T16:00:03.000096,15.89521034,.0001245,97.2857,37.4624,77.8250,244.2199,0,U,69976,999,225,-.70171E-2,-.2017578E-1,.10807E-2
STARLINK-37995,2026-159C,2026-07-17T16:00:03.000096,15.89728386,.0001235,97.2858,37.4635,79.0120,245.1006,0,U,69977,999,225,-.68459E-2,-.1989201E-1,.10545E-2
STARLINK-38057,2026-159D,2026-07-17T16:00:03.000096,15.89932375,.0001167,97.2858,37.4640,80.1021,246.1724,0,U,69978,999,225,-.6717E-2,-.1971975E-1,.10396E-2
STARLINK-38063,2026-159E,2026-07-17T16:00:03.000096,15.90134874,.0001214,97.2858,37.4654,77.7588,250.7003,0,U,69979,999,225,-.66187E-2,-.196308E-1,.10329E-2
STARLINK-38093,2026-159F,2026-07-17T16:00:03.000096,15.90332744,.0001187,97.2858,37.4660,77.0232,253.6344,0,U,69980,999,225,-.65235E-2,-.1954309E-1,.10263E-2
STARLINK-38050,2026-159G,2026-07-17T16:00:03.000096,15.90519443,.0001227,97.2858,37.4670,73.3645,259.3620,0,U,69981,999,225,-.63855E-2,-.1931332E-1,.10057E-2
STARLINK-38065,2026-159H,2026-07-17T16:00:03.000096,15.90713134,.0001239,97.2858,37.4679,72.0753,262.7645,0,U,69982,999,225,-.63017E-2,-.1924818E-1,.10013E-2
STARLINK-38077,2026-159J,2026-07-17T16:00:03.000096,15.90892115,.0001186,97.2859,37.4687,70.6306,266.2886,0,U,69983,999,225,-.61745E-2,-.1903359E-1,.98228E-3
STARLINK-38068,2026-159K,2026-07-17T16:00:03.000096,15.91075182,.0001155,97.2859,37.4695,78.5712,260.2336,0,U,69984,999,225,-.60589E-2,-.188536E-1,.96675E-3
STARLINK-38089,2026-159L,2026-07-17T16:00:03.000096,15.91252934,.0001195,97.2859,37.4705,71.8620,269.0481,0,U,69985,999,225,-.59689E-2,-.1874372E-1,.95796E-3
STARLINK-38073,2026-159M,2026-07-17T16:00:03.000096,15.91428348,.0001194,97.2858,37.4712,71.3637,271.5141,0,U,69986,999,225,-.58728E-2,-.1860891E-1,.9468E-3
STARLINK-38099,2026-159N,2026-07-17T16:00:03.000096,15.91597819,.000118,97.2858,37.4719,70.7617,273.9999,0,U,69987,999,225,-.57597E-2,-.184113E-1,.9297E-3
STARLINK-38064,2026-159P,2026-07-17T16:00:03.000096,15.91942736,.0001165,97.2858,37.4733,67.6654,280.9852,0,U,69988,999,225,-.56132E-2,-.1826454E-1,.91912E-3
STARLINK-38080,2026-159Q,2026-07-17T16:00:03.000096,15.91772905,.0001197,97.2856,37.4728,69.8444,276.8945,0,U,69989,999,225,-.56936E-2,-.1836456E-1,.92694E-3
STARLINK-38070,2026-159R,2026-07-17T16:00:03.000096,15.92102478,.0001165,97.2857,37.4741,69.8126,280.8165,0,U,69990,999,225,-.55179E-2,-.1810394E-1,.90556E-3
STARLINK-38042,2026-159S,2026-07-17T16:00:03.000096,15.92261291,.0001158,97.2856,37.4749,71.2853,281.0644,0,U,69991,999,225,-.54141E-2,-.1791139E-1,.88911E-3
STARLINK-38071,2026-159T,2026-07-17T16:00:03.000096,15.92422650,.000118,97.2857,37.4757,68.6923,285.4202,0,U,69992,999,225,-.53359E-2,-.1780137E-1,.8804E-3
STARLINK-38082,2026-159U,2026-07-17T16:00:03.000096,15.92573282,.0001134,97.2859,37.4763,71.6921,284.2016,0,U,69993,999,225,-.5236E-2,-.1760686E-1,.86388E-3
STARLINK-38090,2026-159V,2026-07-17T16:00:03.000096,15.92733661,.000116,97.2858,37.4771,70.6200,287.0753,0,U,69994,999,225,-.51803E-2,-.1756496E-1,.86147E-3
STARLINK-38084,2026-159W,2026-07-17T16:00:03.000096,15.92884269,.0001159,97.2857,37.4780,68.8802,290.7320,0,U,69995,999,225,-.51067E-2,-.174523E-1,.85252E-3
STARLINK-38085,2026-159X,2026-07-17T16:00:03.000096,15.93030466,.000114,97.2857,37.4788,69.3140,291.9659,0,U,69996,999,225,-.50205E-2,-.1729022E-1,.83909E-3
STARLINK-38091,2026-159Y,2026-07-17T16:00:03.000096,15.93180558,.0001197,97.2858,37.4794,62.5422,300.5961,0,U,69997,999,225,-.49577E-2,-.172088E-1,.83303E-3
STARLINK-38086,2026-159Z,2026-07-17T16:00:03.000096,15.93325675,.0001146,97.2858,37.4803,66.4423,298.4433,0,U,69998,999,225,-.48909E-2,-.1710669E-1,.82508E-3
